[{"OBJECT_NAME":"STARLINK-4393","OBJECT_ID":"2022-099F","EPOCH":"2026-03-09T22:07:48.387648","MEAN_MOTION":15.01259694,"ECCENTRICITY":0.0002203,"INCLINATION":97.6017,"RA_OF_ASC_NODE":190.439,"ARG_OF_PERICENTER":80.9921,"MEAN_ANOMALY":279.1553,"EPHEMERIS_TYPE":0,"CLASSIFICATION_TYPE":"U","NORAD_CAT_ID":53470,"ELEMENT_SET_NO":999,"REV_AT_EPOCH":19601,"BSTAR":-9.8480926e-5,"MEAN_MOTION_DOT":-1.323e-5,"MEAN_MOTION_DDOT":0},{"OBJECT_NAME":"UM5-EOSAT","OBJECT_ID":"2024-149CR","EPOCH":"2026-03-09T17:21:09.122400","MEAN_MOTION":15.00894746,"ECCENTRICITY":0.00087192,"INCLINATION":97.6855,"RA_OF_ASC_NODE":148.6787,"ARG_OF_PERICENTER":107.8964,"MEAN_ANOMALY":252.3212,"EPHEMERIS_TYPE":0,"CLASSIFICATION_TYPE":"U","NORAD_CAT_ID":60555,"ELEMENT_SET_NO":999,"REV_AT_EPOCH":8529,"BSTAR":0.00036077282,"MEAN_MOTION_DOT":4.537e-5,"MEAN_MOTION_DDOT":0}]
